CUTE-1 (CO-55)          
1 27844U 03031E   26132.98314119  .00000190  00000+0  10121-3 0  9999
2 27844  98.6747 141.9842 0008342 290.4636  69.5647 14.24313180186665
CUBESAT XI-IV (CO-57)   
1 27848U 03031J   26132.95398352  .00000166  00000+0  92089-4 0  9998
2 27848  98.6779 141.6963 0008465 311.5693  48.4759 14.23601310186360
CUBESAT XI-V            
1 28895U 05043F   26132.93339218  .00000818  00000+0  13703-3 0  9999
2 28895  98.2946 287.8251 0013144 321.3871  38.6394 14.72535660 96561
CUTE-1.7+APD II (CO-65) 
1 32785U 08021C   26133.17674363  .00002807  00000+0  18110-3 0  9998
2 32785  97.8259 113.8813 0010062 139.5931 220.6046 15.09106999979916
CANX-2                  
1 32790U 08021H   26133.19443502  .00001917  00000+0  13818-3 0  9996
2 32790  97.8625 112.3046 0011212 152.6412 207.5407 15.05360578979544
SEEDS II (CO-66)        
1 32791U 08021J   26132.93248326  .00011933  00000+0  39447-3 0  9990
2 32791  97.7524 129.1841 0005010  84.4541 275.7271 15.31517847981894
SWISSCUBE               
1 35932U 09051B   26132.24860676  .00000616  00000+0  13145-3 0  9999
2 35932  98.4058  39.5092 0006254 336.3034  23.7877 14.62409745883909
BEESAT-1                
1 35933U 09051C   26133.19786649  .00000492  00000+0  10866-3 0  9991
2 35933  98.3987  40.1833 0005037 351.5026   8.6088 14.61660633884078
ITUPSAT1                
1 35935U 09051E   26132.67857995  .00000464  00000+0  10588-3 0  9998
2 35935  98.4072  38.8853 0007481 359.6293   0.4899 14.60384980883551
TISAT 1                 
1 36799U 10035E   26132.82315718  .00012086  00000+0  41456-3 0  9991
2 36799  98.0690  76.2801 0003550  53.3797 306.7768 15.30336159862299
AEROCUBE 4.5A           
1 38767U 12048K   26132.38623218  .00113860  00000+0  66125-3 0  9994
2 38767  64.6292 155.8749 0019245 216.8968 143.0863 15.77683228366988
STRAND-1                
1 39090U 13009E   26132.96637972  .00000174  00000+0  73021-4 0  9995
2 39090  98.3916 314.0694 0008189 344.4935  15.5999 14.37141760692003
BRITE-AUSTRIA           
1 39091U 13009F   26132.96413824  .00000107  00000+0  51059-4 0  9997
2 39091  98.3988 313.2734 0009930 352.4701   7.6334 14.36527567691998
NEE-01 PEGASO           
1 39151U 13018B   26132.95923792  .00001599  00000+0  15771-3 0  9999
2 39151  98.1178 275.9599 0011287 281.1250  78.8699 14.93483092705449
POPACS 2                
1 39269U 13055E   26132.87159821  .00009195  00000+0  15792-3 0  9998
2 39269  80.9929 184.5953 0419220 307.4051  48.9679 14.90404865657957
POPACS 3                
1 39270U 13055F   26132.65096196  .00011360  00000+0  27150-3 0  9999
2 39270  81.0001 267.6896 0554922 178.0579 182.2973 14.55239967633387
ZACUBE-1 (TSHEPISOSAT)  
1 39417U 13066B   26132.87677755  .00003027  00000+0  23831-3 0  9997
2 39417  97.8118  95.0221 0041873  11.9961 348.2250 15.00908497675431
WNISAT-1                
1 39423U 13066H   26133.14310491  .00000293  00000+0  62403-4 0  9997
2 39423  97.7160 284.7956 0162662 342.7831  16.7889 14.58017981661629
TRITON-1                
1 39427U 13066M   26133.17776667  .00002164  00000+0  26390-3 0  9998
2 39427  97.8263  43.7819 0090127 349.5641  10.3698 14.81549559668902
GOMX-1                  
1 39430U 13066Q   26133.04757505  .00001220  00000+0  18979-3 0  9994
2 39430  97.6514 335.7262 0128433 189.7344 170.1373 14.69317744664754
CUBEBUG-2 (LO-74)       
1 39440U 13066AA  26133.09277986  .00001707  00000+0  16254-3 0  9994
2 39440  97.8890  81.9361 0058859 142.3872 218.1487 14.93492653671756
NEE-02 KRYSAOR          
1 39441U 13066AB  26133.07249044  .00000979  00000+0  11282-3 0  9993
2 39441  97.8882  72.5456 0066071 183.5359 176.5399 14.86483676670981
FUNCUBE-1 (AO-73)       
1 39444U 13066AE  26133.18290421  .00004657  00000+0  29448-3 0  9993
2 39444  97.8259 103.9150 0035360 325.6531  34.2410 15.09023935674386
UWE-3                   
1 39446U 13066AG  26133.12079640  .00002132  00000+0  18716-3 0  9999
2 39446  97.8680  88.9732 0050825  76.8414 283.8471 14.96721298672336
BRITE-CA1 (TORONTO)     
1 40020U 14033L   26132.91005509  .00000443  00000+0  74298-4 0  9994
2 40020  97.9688 262.4996 0079292  30.7959 329.7865 14.72627458637029
DUCHIFAT-1              
1 40021U 14033M   26132.12536242  .00050870  00000+0  67127-3 0  9992
2 40021  98.0509 186.4226 0005800 189.1310 170.9839 15.58226206650123
NANOSATC-BR1            
1 40024U 14033Q   26133.03929226  .00010985  00000+0  37739-3 0  9993
2 40024  98.0756 162.3424 0001931 326.7264  33.3853 15.30316701648609
QB50P1                  
1 40025U 14033R   26133.01525299  .00005381  00000+0  27054-3 0  9997
2 40025  98.0981 141.7103 0008365 358.8834   1.2378 15.17700482647694
QB50P2                  
1 40032U 14033Y   26132.96054600  .00003916  00000+0  21553-3 0  9991
2 40032  98.0753 127.6632 0005834 302.9111  57.1557 15.14695367647337
PERSEUS-M2              
1 40037U 14033AD  26133.13583169  .00001165  00000+0  11090-3 0  9992
2 40037  97.9936  82.9702 0013179  59.6089 300.6432 14.95396556645540
